CCSDS_OMM_VERS = 2.0
CREATION_DATE  = 
ORIGINATOR     = 

OBJECT_NAME    = ISS (ZARYA)
OBJECT_ID      = 1998-067A
CENTER_NAME    = EARTH
REF_FRAME      = TEME
TIME_SYSTEM    = UTC
MEAN_ELEMENT_THEORY = SGP/SGP4

EPOCH          = 2025-11-18T08:26:36.689856
MEAN_MOTION    = 15.49788164
ECCENTRICITY   = .0004177
INCLINATION    = 51.6332
RA_OF_ASC_NODE = 263.1865
ARG_OF_PERICENTER = 83.8870
MEAN_ANOMALY   = 276.2595

EPHEMERIS_TYPE = 0
CLASSIFICATION_TYPE = U
NORAD_CAT_ID   = 25544
ELEMENT_SET_NO = 999
REV_AT_EPOCH   = 53907
BSTAR          = .27011E-3
MEAN_MOTION_DOT = .14877E-3
MEAN_MOTION_DDOT = 0

CCSDS_OMM_VERS = 2.0
CREATION_DATE  = 
ORIGINATOR     = 

OBJECT_NAME    = CSS (TIANHE)
OBJECT_ID      = 2021-035A
CENTER_NAME    = EARTH
REF_FRAME      = TEME
TIME_SYSTEM    = UTC
MEAN_ELEMENT_THEORY = SGP/SGP4

EPOCH          = 2025-11-18T01:09:04.205376
MEAN_MOTION    = 15.59247950
ECCENTRICITY   = .0006989
INCLINATION    = 41.4653
RA_OF_ASC_NODE = 166.5244
ARG_OF_PERICENTER = 186.4201
MEAN_ANOMALY   = 173.6548

EPHEMERIS_TYPE = 0
CLASSIFICATION_TYPE = U
NORAD_CAT_ID   = 48274
ELEMENT_SET_NO = 999
REV_AT_EPOCH   = 26017
BSTAR          = .30851E-3
MEAN_MOTION_DOT = .24701E-3
MEAN_MOTION_DDOT = 0

CCSDS_OMM_VERS = 2.0
CREATION_DATE  = 
ORIGINATOR     = 

OBJECT_NAME    = ISS (NAUKA)
OBJECT_ID      = 2021-066A
CENTER_NAME    = EARTH
REF_FRAME      = TEME
TIME_SYSTEM    = UTC
MEAN_ELEMENT_THEORY = SGP/SGP4

EPOCH          = 2025-11-17T13:52:20.934912
MEAN_MOTION    = 15.49761331
ECCENTRICITY   = .00041819
INCLINATION    = 51.6331
RA_OF_ASC_NODE = 267.0194
ARG_OF_PERICENTER = 81.0565
MEAN_ANOMALY   = 279.0897

EPHEMERIS_TYPE = 0
CLASSIFICATION_TYPE = U
NORAD_CAT_ID   = 49044
ELEMENT_SET_NO = 999
REV_AT_EPOCH   = 23044
BSTAR          = .2908666E-3
MEAN_MOTION_DOT = .16042E-3
MEAN_MOTION_DDOT = 0

CCSDS_OMM_VERS = 2.0
CREATION_DATE  = 
ORIGINATOR     = 

OBJECT_NAME    = CSS (WENTIAN)
OBJECT_ID      = 2022-085A
CENTER_NAME    = EARTH
REF_FRAME      = TEME
TIME_SYSTEM    = UTC
MEAN_ELEMENT_THEORY = SGP/SGP4

EPOCH          = 2025-11-17T14:23:26.577888
MEAN_MOTION    = 15.59224308
ECCENTRICITY   = .00069128
INCLINATION    = 41.4654
RA_OF_ASC_NODE = 169.2461
ARG_OF_PERICENTER = 182.8803
MEAN_ANOMALY   = 177.1997

EPHEMERIS_TYPE = 0
CLASSIFICATION_TYPE = U
NORAD_CAT_ID   = 53239
ELEMENT_SET_NO = 999
REV_AT_EPOCH   = 17384
BSTAR          = .36191739E-3
MEAN_MOTION_DOT = .29025E-3
MEAN_MOTION_DDOT = 0

CCSDS_OMM_VERS = 2.0
CREATION_DATE  = 
ORIGINATOR     = 

OBJECT_NAME    = CSS (MENGTIAN)
OBJECT_ID      = 2022-143A
CENTER_NAME    = EARTH
REF_FRAME      = TEME
TIME_SYSTEM    = UTC
MEAN_ELEMENT_THEORY = SGP/SGP4

EPOCH          = 2025-11-17T14:23:26.577888
MEAN_MOTION    = 15.59224308
ECCENTRICITY   = .00069128
INCLINATION    = 41.4654
RA_OF_ASC_NODE = 169.2461
ARG_OF_PERICENTER = 182.8803
MEAN_ANOMALY   = 177.1997

EPHEMERIS_TYPE = 0
CLASSIFICATION_TYPE = U
NORAD_CAT_ID   = 54216
ELEMENT_SET_NO = 999
REV_AT_EPOCH   = 15864
BSTAR          = .36191739E-3
MEAN_MOTION_DOT = .29025E-3
MEAN_MOTION_DDOT = 0

CCSDS_OMM_VERS = 2.0
CREATION_DATE  = 
ORIGINATOR     = 

OBJECT_NAME    = SOYUZ-MS 27
OBJECT_ID      = 2025-072A
CENTER_NAME    = EARTH
REF_FRAME      = TEME
TIME_SYSTEM    = UTC
MEAN_ELEMENT_THEORY = SGP/SGP4

EPOCH          = 2025-11-17T13:52:20.934912
MEAN_MOTION    = 15.49761331
ECCENTRICITY   = .00041819
INCLINATION    = 51.6331
RA_OF_ASC_NODE = 267.0194
ARG_OF_PERICENTER = 81.0565
MEAN_ANOMALY   = 279.0897

EPHEMERIS_TYPE = 0
CLASSIFICATION_TYPE = U
NORAD_CAT_ID   = 63520
ELEMENT_SET_NO = 999
REV_AT_EPOCH   = 2020
BSTAR          = .2908666E-3
MEAN_MOTION_DOT = .16042E-3
MEAN_MOTION_DDOT = 0

CCSDS_OMM_VERS = 2.0
CREATION_DATE  = 
ORIGINATOR     = 

OBJECT_NAME    = SHENZHOU-20 (SZ-20)
OBJECT_ID      = 2025-082A
CENTER_NAME    = EARTH
REF_FRAME      = TEME
TIME_SYSTEM    = UTC
MEAN_ELEMENT_THEORY = SGP/SGP4

EPOCH          = 2025-11-17T14:23:26.577888
MEAN_MOTION    = 15.59224308
ECCENTRICITY   = .00069128
INCLINATION    = 41.4654
RA_OF_ASC_NODE = 169.2461
ARG_OF_PERICENTER = 182.8803
MEAN_ANOMALY   = 177.1997

EPHEMERIS_TYPE = 0
CLASSIFICATION_TYPE = U
NORAD_CAT_ID   = 63632
ELEMENT_SET_NO = 999
REV_AT_EPOCH   = 25530
BSTAR          = .36191739E-3
MEAN_MOTION_DOT = .29025E-3
MEAN_MOTION_DDOT = 0

CCSDS_OMM_VERS = 2.0
CREATION_DATE  = 
ORIGINATOR     = 

OBJECT_NAME    = PROGRESS-MS 31
OBJECT_ID      = 2025-146A
CENTER_NAME    = EARTH
REF_FRAME      = TEME
TIME_SYSTEM    = UTC
MEAN_ELEMENT_THEORY = SGP/SGP4

EPOCH          = 2025-11-17T13:52:20.934912
MEAN_MOTION    = 15.49761331
ECCENTRICITY   = .00041819
INCLINATION    = 51.6331
RA_OF_ASC_NODE = 267.0194
ARG_OF_PERICENTER = 81.0565
MEAN_ANOMALY   = 279.0897

EPHEMERIS_TYPE = 0
CLASSIFICATION_TYPE = U
NORAD_CAT_ID   = 64751
ELEMENT_SET_NO = 999
REV_AT_EPOCH   = 675
BSTAR          = .2908666E-3
MEAN_MOTION_DOT = .16042E-3
MEAN_MOTION_DDOT = 0

CCSDS_OMM_VERS = 2.0
CREATION_DATE  = 
ORIGINATOR     = 

OBJECT_NAME    = TIANZHOU-9
OBJECT_ID      = 2025-149A
CENTER_NAME    = EARTH
REF_FRAME      = TEME
TIME_SYSTEM    = UTC
MEAN_ELEMENT_THEORY = SGP/SGP4

EPOCH          = 2025-11-17T14:23:26.577888
MEAN_MOTION    = 15.59224308
ECCENTRICITY   = .00069128
INCLINATION    = 41.4654
RA_OF_ASC_NODE = 169.2461
ARG_OF_PERICENTER = 182.8803
MEAN_ANOMALY   = 177.1997

EPHEMERIS_TYPE = 0
CLASSIFICATION_TYPE = U
NORAD_CAT_ID   = 64786
ELEMENT_SET_NO = 999
REV_AT_EPOCH   = 25530
BSTAR          = .36191739E-3
MEAN_MOTION_DOT = .29025E-3
MEAN_MOTION_DDOT = 0

CCSDS_OMM_VERS = 2.0
CREATION_DATE  = 
ORIGINATOR     = 

OBJECT_NAME    = CREW DRAGON 11
OBJECT_ID      = 2025-166A
CENTER_NAME    = EARTH
REF_FRAME      = TEME
TIME_SYSTEM    = UTC
MEAN_ELEMENT_THEORY = SGP/SGP4

EPOCH          = 2025-11-17T13:52:20.934912
MEAN_MOTION    = 15.49761331
ECCENTRICITY   = .00041819
INCLINATION    = 51.6331
RA_OF_ASC_NODE = 267.0194
ARG_OF_PERICENTER = 81.0565
MEAN_ANOMALY   = 279.0897

EPHEMERIS_TYPE = 0
CLASSIFICATION_TYPE = U
NORAD_CAT_ID   = 65077
ELEMENT_SET_NO = 999
REV_AT_EPOCH   = 214
BSTAR          = .2908666E-3
MEAN_MOTION_DOT = .16042E-3
MEAN_MOTION_DDOT = 0

CCSDS_OMM_VERS = 2.0
CREATION_DATE  = 
ORIGINATOR     = 

OBJECT_NAME    = DRAGON CRS-33
OBJECT_ID      = 2025-186A
CENTER_NAME    = EARTH
REF_FRAME      = TEME
TIME_SYSTEM    = UTC
MEAN_ELEMENT_THEORY = SGP/SGP4

EPOCH          = 2025-11-17T13:52:20.934912
MEAN_MOTION    = 15.49761331
ECCENTRICITY   = .00041819
INCLINATION    = 51.6331
RA_OF_ASC_NODE = 267.0194
ARG_OF_PERICENTER = 81.0565
MEAN_ANOMALY   = 279.0897

EPHEMERIS_TYPE = 0
CLASSIFICATION_TYPE = U
NORAD_CAT_ID   = 65304
ELEMENT_SET_NO = 999
REV_AT_EPOCH   = 11
BSTAR          = .2908666E-3
MEAN_MOTION_DOT = .16042E-3
MEAN_MOTION_DDOT = 0

