ISS (ZARYA)             
1 25544U 98067A   25322.35181354  .00014877  00000+0  27011-3 0  9994
2 25544  51.6332 263.1865 0004177  83.8870 276.2595 15.49788164539079
CSS (TIANHE)            
1 48274U 21035A   25322.04796534  .00024701  00000+0  30851-3 0  9991
2 48274  41.4653 166.5244 0006989 186.4201 173.6548 15.59247950260179
ISS (NAUKA)             
1 49044U 21066A   25321.57802008  .00016042  00000+0  29087-3 0  9990
2 49044  51.6331 267.0194 0004181  81.0565 279.0897 15.49761331230445
CSS (WENTIAN)           
1 53239U 22085A   25321.59961317  .00029025  00000+0  36192-3 0  9994
2 53239  41.4654 169.2461 0006912 182.8803 177.1997 15.59224308173848
CSS (MENGTIAN)          
1 54216U 22143A   25321.59961317  .00029025  00000+0  36192-3 0  9995
2 54216  41.4654 169.2461 0006912 182.8803 177.1997 15.59224308158645
SOYUZ-MS 27             
1 63520U 25072A   25321.57802008  .00016042  00000+0  29087-3 0  9996
2 63520  51.6331 267.0194 0004181  81.0565 279.0897 15.49761331 20201
SHENZHOU-20 (SZ-20)     
1 63632U 25082A   25321.59961317  .00029025  00000+0  36192-3 0  9992
2 63632  41.4654 169.2461 0006912 182.8803 177.1997 15.59224308255308
PROGRESS-MS 31          
1 64751U 25146A   25321.57802008  .00016042  00000+0  29087-3 0  9995
2 64751  51.6331 267.0194 0004181  81.0565 279.0897 15.49761331  6752
TIANZHOU-9              
1 64786U 25149A   25321.59961317  .00029025  00000+0  36192-3 0  9997
2 64786  41.4654 169.2461 0006912 182.8803 177.1997 15.59224308255309
CREW DRAGON 11          
1 65077U 25166A   25321.57802008  .00016042  00000+0  29087-3 0  9999
2 65077  51.6331 267.0194 0004181  81.0565 279.0897 15.49761331  2143
DRAGON CRS-33           
1 65304U 25186A   25321.57802008  .00016042  00000+0  29087-3 0  9994
2 65304  51.6331 267.0194 0004181  81.0565 279.0897 15.49761331   111
